ONEWEB-0029             
1 45445U 20020X   24229.36276550 -.00000615  00000+0 -17700-2 0  9999
2 45445  87.8999 154.4201 0001954  70.6351 289.4988 13.11416749214868
ONEWEB-0068             
1 45446U 20020Y   24229.33818207  .00000227  00000+0  60528-3 0  9992
2 45446  87.8999 154.4105 0001902  71.4507 288.6828 13.11417183214808
ONEWEB-0046             
1 45447U 20020Z   24229.79342870  .00000381  00000+0  10403-2 0  9998
2 45447  87.9000 154.3327 0002236  71.0447 289.0923 13.11415057214885
ONEWEB-0063             
1 45448U 20020AA  24229.28816681 -.00000538  00000+0 -15547-2 0  9999
2 45448  87.9000 154.4327 0002284  76.4752 283.6630 13.11416518214897
ONEWEB-0019             
1 45449U 20020AB  24229.33903460  .00000211  00000+0  55903-3 0  9995
2 45449  87.9002 154.4285 0002014  81.1670 278.9686 13.11413813214743
ONEWEB-0094             
1 45450U 20020AC  24229.29682593  .00000042  00000+0  75188-4 0  9993
2 45450  87.9185 139.2510 0001942  71.8649 288.2694 13.17647623218099
ONEWEB-0087             
1 45451U 20020AD  24229.29820776 -.00000198  00000+0 -59388-3 0  9998
2 45451  87.8996 154.4006 0002033  67.9211 292.2132 13.11418037214784
ONEWEB-0082             
1 45452U 20020AE  24229.29494710 -.00000260  00000+0 -76971-3 0  9991
2 45452  87.9001 154.4075 0001926  76.7036 283.4307 13.11419440214877
ONEWEB-0050             
1 45453U 20020AF  24229.43985747  .00008823  00000+0  90585-3 0  9991
2 45453  88.0051  12.8722 0002101 171.8898 188.2365 14.90301267240599
ONEWEB-0034             
1 45454U 20020AG  24229.31699973  .00000522  00000+0  14372-2 0  9999
2 45454  87.9000 154.4223 0001966  74.6508 285.4837 13.11417972214797
ONEWEB-0060             
1 45455U 20020AH  24229.35951786 -.00000488  00000+0 -14116-2 0  9996
2 45455  87.9003 154.4311 0002192  77.0777 283.0596 13.11416214214756
ONEWEB-0086             
1 45456U 20020AJ  24229.80020581  .00000093  00000+0  22618-3 0  9994
2 45456  87.8997 154.3274 0001889  62.8108 297.3212 13.11414172214874
ONEWEB-0088             
1 45457U 20020AK  24229.32039361  .00000594  00000+0  16413-2 0  9999
2 45457  87.8994 154.3849 0002024  72.8553 287.2796 13.11417538214747
ONEWEB-0102             
1 47258U 20100A   24229.23879459  .00000521  00000+0  14116-2 0  9997
2 47258  87.8934 124.1158 0001837  81.4652 278.6685 13.12444556176858
ONEWEB-0109             
1 47259U 20100B   24229.24690420  .00000403  00000+0  10851-2 0  9999
2 47259  87.8934 124.0794 0001848  81.4705 278.6633 13.12443482176686
ONEWEB-0110             
1 47260U 20100C   24229.27285099 -.00000492  00000+0 -14026-2 0  9994
2 47260  87.8928 124.0763 0001717  77.7667 282.3654 13.12441713176856
ONEWEB-0111             
1 47261U 20100D   24229.22743142  .00000200  00000+0  52178-3 0  9994
2 47261  87.8934 124.0843 0001771  77.6128 282.5199 13.12447260176684
ONEWEB-0114             
1 47262U 20100E   24229.25826661  .00000075  00000+0  17428-3 0  9995
2 47262  87.8928 124.0913 0001922  89.0602 271.0747 13.12439405176648
ONEWEB-0117             
1 47263U 20100F   24229.25014609  .00000313  00000+0  83376-3 0  9997
2 47263  87.8933 124.0709 0001846  75.6118 284.5215 13.12444254176654
ONEWEB-0118             
1 47264U 20100G   24229.20634747 -.00000332  00000+0 -95910-3 0  9994
2 47264  87.8934 124.0828 0002259  82.4843 277.6542 13.12443847176842
ONEWEB-0119             
1 47265U 20100H   24229.23393008  .00000459  00000+0  12410-2 0  9991
2 47265  87.8932 124.1162 0001810  77.7074 282.4257 13.12443554176828
ONEWEB-0120             
1 47266U 20100J   24229.25676856  .00000110  00000+0  27172-3 0  9995
2 47266  87.8936 124.1018 0001951  81.3102 278.8248 13.12443216176859
ONEWEB-0121             
1 47267U 20100K   24229.24527622 -.00004374  00000+0 -12196-1 0  9997
2 47267  87.8930 124.0920 0001701  80.2578 279.8743 13.12465802176769
ONEWEB-0122             
1 47268U 20100L   24229.24027506  .00000520  00000+0  14107-2 0  9996
2 47268  87.8929 124.0978 0001706  79.2919 280.8401 13.12444951176678
ONEWEB-0123             
1 47269U 20100M   24229.23554886  .00000459  00000+0  12393-2 0  9998
2 47269  87.8933 124.1146 0001936  78.3068 281.8277 13.12445390176818
ONEWEB-0124             
1 47270U 20100N   24229.22418785  .00000220  00000+0  57542-3 0  9998
2 47270  87.8935 124.1134 0001688  69.1508 290.9801 13.12446162176698
ONEWEB-0125             
1 47271U 20100P   24229.20148335 -.00000350  00000+0 -10087-2 0  9996
2 47271  87.8935 124.0779 0002134  70.8721 289.2639 13.12443648176759
ONEWEB-0126             
1 47272U 20100Q   24229.22657768  .00005128  00000+0  14205-1 0  9995
2 47272  87.8917 124.0728 0001700  71.2380 288.8933 13.12473111176826
ONEWEB-0127             
1 47273U 20100R   24229.26474292 -.00000154  00000+0 -46222-3 0  9991
2 47273  87.8935 124.0994 0001856  80.2095 279.9243 13.12443145176859
ONEWEB-0128             
1 47274U 20100S   24229.21121265 -.00000235  00000+0 -68823-3 0  9997
2 47274  87.8940 124.1172 0001563  75.3423 284.7879 13.12444486176869
ONEWEB-0129             
1 47275U 20100T   24229.26636789 -.00000207  00000+0 -61118-3 0  9994
2 47275  87.8935 124.0694 0002744 113.4685 246.6732 13.12442905176801
ONEWEB-0130             
1 47276U 20100U   24229.21769801 -.00000005  00000+0 -49070-4 0  9992
2 47276  87.8932 124.0856 0001752  80.6620 279.4707 13.12446240176768
ONEWEB-0131             
1 47277U 20100V   24229.21445769 -.00000104  00000+0 -32483-3 0  9996
2 47277  87.8935 124.1028 0001742  75.6997 284.4324 13.12444353176803
ONEWEB-0132             
1 47278U 20100W   24229.24365989  .00000477  00000+0  12914-2 0  9992
2 47278  87.8936 124.0992 0001842  68.9038 291.2287 13.12442119176707
ONEWEB-0133             
1 47279U 20100X   24229.25987519 -.00000003  00000+0 -44734-4 0  9997
2 47279  87.8930 124.0910 0001726  74.2003 285.9315 13.12440557176868
ONEWEB-0134             
1 47280U 20100Y   24229.22907756  .00001795  00000+0  49538-2 0  9993
2 47280  87.8930 124.0842 0001778  80.0502 280.0827 13.12438419176835
ONEWEB-0135             
1 47281U 20100Z   24229.27609008 -.00000403  00000+0 -11570-2 0  9990
2 47281  87.8933 124.0944 0001345  80.6031 279.5250 13.12441572176865
ONEWEB-0136             
1 47282U 20100AA  24229.21933438  .00000466  00000+0  12591-2 0  9993
2 47282  87.8935 124.0733 0001303  87.8415 272.2862 13.12442979176785
ONEWEB-0137             
1 47283U 20100AB  24229.25338852  .00000258  00000+0  68040-3 0  9997
2 47283  87.8929 124.0886 0001948  79.4944 280.6404 13.12443458176695
ONEWEB-0138             
1 47284U 20100AC  24229.23230696  .00000608  00000+0  16557-2 0  9997
2 47284  87.8928 124.1050 0001830  81.3918 278.7418 13.12442778176778
ONEWEB-0139             
1 47285U 20100AD  24229.27136939  .00001113  00000+0  30589-2 0  9990
2 47285  87.8935 124.0696 0002018  76.9005 283.2348 13.12438390176855
ONEWEB-0140             
1 47286U 20100AE  24229.22581568  .00000320  00000+0  85299-3 0  9996
2 47286  87.8930 124.0819 0001733  79.6937 280.4387 13.12444680176812
ONEWEB-0141             
1 47287U 20100AF  24229.27109381 -.00000308  00000+0 -89132-3 0  9999
2 47287  87.8932 124.0853 0002027  75.6732 284.4622 13.12443472176802
ONEWEB-0142             
1 47288U 20100AG  24229.23958125  .00000526  00000+0  14267-2 0  9990
2 47288  87.8931 124.0726 0002019  83.7635 276.3724 13.12439816176792
ONEWEB-0143             
1 47289U 20100AH  24229.19337360 -.00000267  00000+0 -77866-3 0  9997
2 47289  87.8933 124.1030 0001837  74.2620 285.8711 13.12443213176764
ONEWEB-0144             
1 47290U 20100AJ  24229.24203790  .00000519  00000+0  14069-2 0  9997
2 47290  87.8930 124.0765 0001922  87.6047 272.5302 13.12444408176691
ONEWEB-0145             
1 47291U 20100AK  24229.21287500 -.00005897  00000+0 -16443-1 0  9999
2 47291  87.8874 124.1089 0001124  96.6843 263.4413 13.12422075176886
ONEWEB-0146             
1 47292U 20100AL  24229.20959466 -.00000295  00000+0 -85460-3 0  9990
2 47292  87.8932 124.0912 0001817  62.9780 297.1534 13.12443934176796
ONEWEB-0147             
1 47293U 20100AM  24229.25176720  .00000280  00000+0  74325-3 0  9990
2 47293  87.8928 124.0745 0001553  81.9258 278.2047 13.12443655176692
ONEWEB-0115             
1 48042U 21025A   24229.11727619 -.00000278  00000+0 -79758-3 0  9998
2 48042  87.8875  93.5913 0001673  77.1029 283.0287 13.13470191165637
ONEWEB-0152             
1 48043U 21025B   24229.12997261 -.00000052  00000+0 -17752-3 0  9998
2 48043  87.8878  93.5888 0001671  78.5423 281.5893 13.13470263165594
ONEWEB-0153             
1 48044U 21025C   24229.18393446 -.00000195  00000+0 -56998-3 0  9993
2 48044  87.8883  93.5673 0001780  82.9056 277.2275 13.13470057165592
ONEWEB-0154             
1 48045U 21025D   24229.18076099 -.00000085  00000+0 -26777-3 0  9996
2 48045  87.8878  93.5776 0001675  81.0944 279.0374 13.13470024165550
ONEWEB-0116             
1 48046U 21025E   24229.14584761  .00000305  00000+0  79994-3 0  9995
2 48046  87.8882  93.5553 0001668  74.4419 285.6894 13.13469283165694
ONEWEB-0150             
1 48047U 21025F   24229.12044772 -.00000216  00000+0 -62721-3 0  9990
2 48047  87.8875  93.5758 0001880  82.8496 277.2847 13.13469070165585
ONEWEB-0107             
1 48048U 21025G   24229.12203782 -.00000225  00000+0 -65146-3 0  9993
2 48048  87.8875  93.5733 0001999  86.5143 273.6214 13.13469972165567
ONEWEB-0101             
1 48049U 21025H   24229.16171947  .00000365  00000+0  96565-3 0  9997
2 48049  87.8883  93.5854 0001673  82.7756 277.3563 13.13468947165545
ONEWEB-0113             
1 48050U 21025J   24229.13949482  .00000212  00000+0  54493-3 0  9998
2 48050  87.8879  93.5711 0001662  76.0070 284.1244 13.13470229165624
ONEWEB-0112             
1 48051U 21025K   24229.12679779 -.00000128  00000+0 -38608-3 0  9995
2 48051  87.8874  93.5698 0001829  79.4291 280.7044 13.13471724165633
